# xsvCogs

# Aviation Cog
## Commands
## Weather METAR
### Command: !metar
### Parameter: Station ID.

#### Data:
* Flight Category: VFR
* Raw Text
* Station ID:  The ID of the airport.  Lookup table https://raw.githubusercontent.com/jpatokal/openflights/master/data/airports.dat
* Station ID Actual Name: The full name for the station ID
* observation time: Data timestamp
* Temp:
* Dewpoint
* Wind Direction
* Wind Speed
* Wind Gust
* Visibility
* altimeter:  Inches in Mercury? Precision is 2 decimal places. x.00
* Sea Level
* Sky condition

### Bot Output (exising depracated bot)
* METAR for KARM
* KARM 190015Z AUTO 08007KT 10SM SCT110 17/00 A3023 RMK AO2 T01671003

* Station: KARM
* Observed at: 2019-03-19 00:15:00Z
* Temperature: 16.700°C (62.060°F)
* Dewpoint: -0.300°C (31.460°F)
* Winds: 7 knots at 80°
* Visibility: 16093m (10.00sm)
* Pressure: 1024 hPa (30.23 in Hg.)
* Sky Conditions
* Scattered clouds at 11000
* Flight Category: VFR
* Retrieved in 7ms.

### Flightinfo
    - Departure location
    - Arrival Location
    - Flight times
    - Speed
    - Altitude
    - Weather?
    - Map

# Battlefield
## TODO
